{
  "type": "FeatureCollection",
  "features": [
    {
      "type": "Feature",
      "properties": {
        "norad_id": 34582,
        "name": "COSMOS 2251 DEB",
        "group": "cosmos-2251-debris",
        "lat": 2.7545733484108257,
        "lon": 110.4834867390074,
        "alt_km": 773.0335638707747,
        "timestamp": "2025-12-02T13:52:17.655999+00:00",
        "meta_object_name": "COSMOS 2251 DEB",
        "meta_object_id": "1993-036VU",
        "meta_epoch": "2025-12-02T04:44:22.711776",
        "meta_mean_motion": 14.43233613,
        "meta_eccentricity": 0.00472815,
        "meta_inclination": 74.0193,
        "meta_ra_of_asc_node": 291.9807,
        "meta_arg_of_pericenter": 44.6823,
        "meta_mean_anomaly": 315.8127,
        "meta_ephemeris_type": 0,
        "meta_classification_type": "U",
        "meta_norad_cat_id": 34582,
        "meta_element_set_no": 999,
        "meta_rev_at_epoch": 87795,
        "meta_bstar": 0.00099266285,
        "meta_mean_motion_dot": 3.36e-05,
        "meta_mean_motion_ddot": 0,
        "tle_line1": "1 34582U 93036VU  25336.19748509  .00003360  00000+0  99266-3 0  9991",
        "tle_line2": "2 34582  74.0193 291.9807 0047281  44.6823 315.8127 14.43233613877956"
      },
      "geometry": {
        "type": "Point",
        "coordinates": [
          110.4834867390074,
          2.7545733484108257
        ]
      }
    },
    {
      "type": "Feature",
      "properties": {
        "norad_id": 34588,
        "name": "COSMOS 2251 DEB",
        "group": "cosmos-2251-debris",
        "lat": -72.04098358544348,
        "lon": -134.89105039311542,
        "alt_km": 752.7357331573467,
        "timestamp": "2025-12-02T13:52:17.656010+00:00",
        "meta_object_name": "COSMOS 2251 DEB",
        "meta_object_id": "1993-036WA",
        "meta_epoch": "2025-12-02T06:28:13.117728",
        "meta_mean_motion": 14.4196516,
        "meta_eccentricity": 0.0018849,
        "meta_inclination": 74.0428,
        "meta_ra_of_asc_node": 287.6553,
        "meta_arg_of_pericenter": 341.5241,
        "meta_mean_anomaly": 136.8087,
        "meta_ephemeris_type": 0,
        "meta_classification_type": "U",
        "meta_norad_cat_id": 34588,
        "meta_element_set_no": 999,
        "meta_rev_at_epoch": 87799,
        "meta_bstar": 0.00065782547,
        "meta_mean_motion_dot": 2.135e-05,
        "meta_mean_motion_ddot": 0,
        "tle_line1": "1 34588U 93036WA  25336.26959627  .00002135  00000+0  65783-3 0  9996",
        "tle_line2": "2 34588  74.0428 287.6553 0018849 341.5241 136.8087 14.41965160877991"
      },
      "geometry": {
        "type": "Point",
        "coordinates": [
          -134.89105039311542,
          -72.04098358544348
        ]
      }
    },
    {
      "type": "Feature",
      "properties": {
        "norad_id": 34589,
        "name": "COSMOS 2251 DEB",
        "group": "cosmos-2251-debris",
        "lat": 5.703388248224683,
        "lon": 74.99602758505118,
        "alt_km": 764.3765580843237,
        "timestamp": "2025-12-02T13:52:17.656020+00:00",
        "meta_object_name": "COSMOS 2251 DEB",
        "meta_object_id": "1993-036WB",
        "meta_epoch": "2025-12-02T00:51:37.569600",
        "meta_mean_motion": 13.86041103,
        "meta_eccentricity": 0.02515608,
        "meta_inclination": 73.9251,
        "meta_ra_of_asc_node": 74.2692,
        "meta_arg_of_pericenter": 19.7326,
        "meta_mean_anomaly": 162.8707,
        "meta_ephemeris_type": 0,
        "meta_classification_type": "U",
        "meta_norad_cat_id": 34589,
        "meta_element_set_no": 999,
        "meta_rev_at_epoch": 84563,
        "meta_bstar": 0.00029049986,
        "meta_mean_motion_dot": 4.05e-06,
        "meta_mean_motion_ddot": 0,
        "tle_line1": "1 34589U 93036WB  25336.03585150  .00000405  00000+0  29050-3 0  9993",
        "tle_line2": "2 34589  73.9251  74.2692 0251560  19.7326 162.8707 13.86041103845639"
      },
      "geometry": {
        "type": "Point",
        "coordinates": [
          74.99602758505118,
          5.703388248224683
        ]
      }
    },
    {
      "type": "Feature",
      "properties": {
        "norad_id": 34590,
        "name": "COSMOS 2251 DEB",
        "group": "cosmos-2251-debris",
        "lat": -2.769049808206774,
        "lon": -19.018227325219797,
        "alt_km": 734.734640000167,
        "timestamp": "2025-12-02T13:52:17.656030+00:00",
        "meta_object_name": "COSMOS 2251 DEB",
        "meta_object_id": "1993-036WC",
        "meta_epoch": "2025-12-02T02:37:13.511424",
        "meta_mean_motion": 14.54805908,
        "meta_eccentricity": 0.00680833,
        "meta_inclination": 74.0436,
        "meta_ra_of_asc_node": 342.6611,
        "meta_arg_of_pericenter": 115.3761,
        "meta_mean_anomaly": 308.3248,
        "meta_ephemeris_type": 0,
        "meta_classification_type": "U",
        "meta_norad_cat_id": 34590,
        "meta_element_set_no": 999,
        "meta_rev_at_epoch": 88966,
        "meta_bstar": 0.00014019827,
        "meta_mean_motion_dot": 5.9e-06,
        "meta_mean_motion_ddot": 0,
        "tle_line1": "1 34590U 93036WC  25336.10918416  .00000590  00000+0  14020-3 0  9994",
        "tle_line2": "2 34590  74.0436 342.6611 0068083 115.3761 308.3248 14.54805908889668"
      },
      "geometry": {
        "type": "Point",
        "coordinates": [
          -19.018227325219797,
          -2.769049808206774
        ]
      }
    },
    {
      "type": "Feature",
      "properties": {
        "norad_id": 34609,
        "name": "COSMOS 2251 DEB",
        "group": "cosmos-2251-debris",
        "lat": -66.73163556983273,
        "lon": -11.932342775134016,
        "alt_km": 830.9717573776616,
        "timestamp": "2025-12-02T13:52:17.656040+00:00",
        "meta_object_name": "COSMOS 2251 DEB",
        "meta_object_id": "1993-036WE",
        "meta_epoch": "2025-12-01T09:47:24.508320",
        "meta_mean_motion": 14.21729086,
        "meta_eccentricity": 0.01444513,
        "meta_inclination": 73.7303,
        "meta_ra_of_asc_node": 127.4301,
        "meta_arg_of_pericenter": 348.7927,
        "meta_mean_anomaly": 39.6544,
        "meta_ephemeris_type": 0,
        "meta_classification_type": "U",
        "meta_norad_cat_id": 34609,
        "meta_element_set_no": 999,
        "meta_rev_at_epoch": 86471,
        "meta_bstar": 0.00076178373,
        "meta_mean_motion_dot": 1.834e-05,
        "meta_mean_motion_ddot": 0,
        "tle_line1": "1 34609U 93036WE  25335.40792255  .00001834  00000+0  76178-3 0  9992",
        "tle_line2": "2 34609  73.7303 127.4301 0144451 348.7927  39.6544 14.21729086864711"
      },
      "geometry": {
        "type": "Point",
        "coordinates": [
          -11.932342775134016,
          -66.73163556983273
        ]
      }
    },
    {
      "type": "Feature",
      "properties": {
        "norad_id": 34610,
        "name": "COSMOS 2251 DEB",
        "group": "cosmos-2251-debris",
        "lat": -56.624838847252136,
        "lon": 125.92347841414521,
        "alt_km": 1006.0040878878435,
        "timestamp": "2025-12-02T13:52:17.656050+00:00",
        "meta_object_name": "COSMOS 2251 DEB",
        "meta_object_id": "1993-036WF",
        "meta_epoch": "2025-12-02T05:54:49.499136",
        "meta_mean_motion": 14.06923828,
        "meta_eccentricity": 0.01799919,
        "meta_inclination": 74.0187,
        "meta_ra_of_asc_node": 280.718,
        "meta_arg_of_pericenter": 53.6294,
        "meta_mean_anomaly": 308.1299,
        "meta_ephemeris_type": 0,
        "meta_classification_type": "U",
        "meta_norad_cat_id": 34610,
        "meta_element_set_no": 999,
        "meta_rev_at_epoch": 85412,
        "meta_bstar": 0.0026726294,
        "meta_mean_motion_dot": 5.142e-05,
        "meta_mean_motion_ddot": 0,
        "tle_line1": "1 34610U 93036WF  25336.24640624  .00005142  00000+0  26726-2 0  9998",
        "tle_line2": "2 34610  74.0187 280.7180 0179991  53.6294 308.1299 14.06923828854129"
      },
      "geometry": {
        "type": "Point",
        "coordinates": [
          125.92347841414521,
          -56.624838847252136
        ]
      }
    },
    {
      "type": "Feature",
      "properties": {
        "norad_id": 34611,
        "name": "COSMOS 2251 DEB",
        "group": "cosmos-2251-debris",
        "lat": 3.0807603522724607,
        "lon": -60.25621509813113,
        "alt_km": 649.3492826751299,
        "timestamp": "2025-12-02T13:52:17.656060+00:00",
        "meta_object_name": "COSMOS 2251 DEB",
        "meta_object_id": "1993-036WG",
        "meta_epoch": "2025-12-02T05:11:03.093792",
        "meta_mean_motion": 14.69146948,
        "meta_eccentricity": 0.00241114,
        "meta_inclination": 74.0519,
        "meta_ra_of_asc_node": 121.3255,
        "meta_arg_of_pericenter": 166.3217,
        "meta_mean_anomaly": 256.6389,
        "meta_ephemeris_type": 0,
        "meta_classification_type": "U",
        "meta_norad_cat_id": 34611,
        "meta_element_set_no": 999,
        "meta_rev_at_epoch": 88236,
        "meta_bstar": 0.0016961226,
        "meta_mean_motion_dot": 0.00010005,
        "meta_mean_motion_ddot": 0,
        "tle_line1": "1 34611U 93036WG  25336.21600803  .00010005  00000+0  16961-2 0  9995",
        "tle_line2": "2 34611  74.0519 121.3255 0024111 166.3217 256.6389 14.69146948882365"
      },
      "geometry": {
        "type": "Point",
        "coordinates": [
          -60.25621509813113,
          3.0807603522724607
        ]
      }
    }
  ]
}